OBJECT_NAME,OBJECT_ID,EPOCH,MEAN_MOTION,ECCENTRICITY,INCLINATION,RA_OF_ASC_NODE,ARG_OF_PERICENTER,MEAN_ANOMALY,EPHEMERIS_TYPE,CLASSIFICATION_TYPE,NORAD_CAT_ID,ELEMENT_SET_NO,REV_AT_EPOCH,BSTAR,MEAN_MOTION_DOT,MEAN_MOTION_DDOT
TEVEL2-7,2025-052AE,2026-06-04T15:38:47.453568,15.31212802,.00065817,97.3951,50.9267,168.2020,191.9377,0,U,63238,999,6810,.59587575E-3,.17921E-3,0
TEVEL2-8,2025-052AF,2026-06-04T15:50:28.971456,15.31195553,.00065639,97.3951,50.9120,168.5625,191.5767,0,U,63239,999,6810,.59749177E-3,.17961E-3,0
FORESAIL-1 PRIME,2025-276DS,2026-06-05T00:06:33.533856,15.18588249,.0003563,97.4202,229.4991,129.0934,231.0618,0,U,66778,999,2855,.30252946E-3,.619E-4,0
